[{"OBJECT_NAME":"OBJECT D","OBJECT_ID":"2024-094D","EPOCH":"2026-03-09T22:52:46.564608","MEAN_MOTION":15.16422543,"ECCENTRICITY":0.00060254,"INCLINATION":97.3922,"RA_OF_ASC_NODE":142.0851,"ARG_OF_PERICENTER":217.1519,"MEAN_ANOMALY":142.9298,"EPHEMERIS_TYPE":0,"CLASSIFICATION_TYPE":"U","NORAD_CAT_ID":59808,"ELEMENT_SET_NO":999,"REV_AT_EPOCH":10011,"BSTAR":0.0004850971,"MEAN_MOTION_DOT":9.373e-5,"MEAN_MOTION_DDOT":0},{"OBJECT_NAME":"LEGION 6","OBJECT_ID":"2025-025B","EPOCH":"2026-03-09T22:31:51.248640","MEAN_MOTION":15.16188393,"ECCENTRICITY":0.00128841,"INCLINATION":45.002,"RA_OF_ASC_NODE":22.5436,"ARG_OF_PERICENTER":290.9928,"MEAN_ANOMALY":68.9572,"EPHEMERIS_TYPE":0,"CLASSIFICATION_TYPE":"U","NORAD_CAT_ID":62901,"ELEMENT_SET_NO":999,"REV_AT_EPOCH":6057,"BSTAR":0.00036964993,"MEAN_MOTION_DOT":7.014e-5,"MEAN_MOTION_DDOT":0}]
